{
  "type": "FeatureCollection",
  "features": [
    {
      "type": "Feature",
      "properties": {
        "norad_id": 66956,
        "name": "HULIANWANG DIGUI-117",
        "group": "last-30-days",
        "lat": 23.445467780443256,
        "lon": 164.42699552543826,
        "alt_km": 998.1711794719813,
        "timestamp": "2025-12-13T07:35:40.339264+00:00",
        "meta_object_name": "HULIANWANG DIGUI-117",
        "meta_object_id": "2025-287D",
        "meta_epoch": "2025-12-11T19:45:00.614592",
        "meta_mean_motion": 13.6901764,
        "meta_eccentricity": 0.00072845,
        "meta_inclination": 86.4968,
        "meta_ra_of_asc_node": 346.4938,
        "meta_arg_of_pericenter": 195.1574,
        "meta_mean_anomaly": 164.9368,
        "meta_ephemeris_type": 0,
        "meta_classification_type": "U",
        "meta_norad_cat_id": 66956,
        "meta_element_set_no": 999,
        "meta_rev_at_epoch": 40,
        "meta_bstar": 1.8810541e-05,
        "meta_mean_motion_dot": 3.3e-07,
        "meta_mean_motion_ddot": 0,
        "tle_line1": "1 66956U 25287D   25345.82292378  .00000033  00000+0  18811-4 0  9994",
        "tle_line2": "2 66956  86.4968 346.4938 0007284 195.1574 164.9368 13.69017640   403"
      },
      "geometry": {
        "type": "Point",
        "coordinates": [
          164.42699552543826,
          23.445467780443256
        ]
      }
    },
    {
      "type": "Feature",
      "properties": {
        "norad_id": 66957,
        "name": "HULIANWANG DIGUI-118",
        "group": "last-30-days",
        "lat": 21.63006181896522,
        "lon": 164.55216218973516,
        "alt_km": 997.8765252355888,
        "timestamp": "2025-12-13T07:35:40.339273+00:00",
        "meta_object_name": "HULIANWANG DIGUI-118",
        "meta_object_id": "2025-287E",
        "meta_epoch": "2025-12-12T16:47:31.774848",
        "meta_mean_motion": 13.69137019,
        "meta_eccentricity": 0.00072192,
        "meta_inclination": 86.4945,
        "meta_ra_of_asc_node": 346.17,
        "meta_arg_of_pericenter": 190.5502,
        "meta_mean_anomaly": 169.5507,
        "meta_ephemeris_type": 0,
        "meta_classification_type": "U",
        "meta_norad_cat_id": 66957,
        "meta_element_set_no": 999,
        "meta_rev_at_epoch": 52,
        "meta_bstar": -0.00019372766,
        "meta_mean_motion_dot": -1.51e-06,
        "meta_mean_motion_ddot": 0,
        "tle_line1": "1 66957U 25287E   25346.69967332 -.00000151  00000+0 -19373-3 0  9996",
        "tle_line2": "2 66957  86.4945 346.1700 0007219 190.5502 169.5507 13.69137019   523"
      },
      "geometry": {
        "type": "Point",
        "coordinates": [
          164.55216218973516,
          21.63006181896522
        ]
      }
    },
    {
      "type": "Feature",
      "properties": {
        "norad_id": 66958,
        "name": "CZ-6A R/B",
        "group": "last-30-days",
        "lat": -21.43187053428904,
        "lon": 167.2557076476004,
        "alt_km": 930.8222998575584,
        "timestamp": "2025-12-13T07:35:40.339284+00:00",
        "meta_object_name": "CZ-6A R/B",
        "meta_object_id": "2025-287F",
        "meta_epoch": "2025-12-12T23:45:26.611776",
        "meta_mean_motion": 13.94919345,
        "meta_eccentricity": 0.01072376,
        "meta_inclination": 86.5058,
        "meta_ra_of_asc_node": 346.0055,
        "meta_arg_of_pericenter": 101.4025,
        "meta_mean_anomaly": 259.9218,
        "meta_ephemeris_type": 0,
        "meta_classification_type": "U",
        "meta_norad_cat_id": 66958,
        "meta_element_set_no": 999,
        "meta_rev_at_epoch": 57,
        "meta_bstar": 0.000149332,
        "meta_mean_motion_dot": 2.29e-06,
        "meta_mean_motion_ddot": 0,
        "tle_line1": "1 66958U 25287F   25346.98989134  .00000229  00000+0  14933-3 0  9994",
        "tle_line2": "2 66958  86.5058 346.0055 0107237 101.4025 259.9218 13.94919345   570"
      },
      "geometry": {
        "type": "Point",
        "coordinates": [
          167.2557076476004,
          -21.43187053428904
        ]
      }
    },
    {
      "type": "Feature",
      "properties": {
        "norad_id": 66988,
        "name": "YAOGAN-47",
        "group": "last-30-days",
        "lat": -81.1994237513444,
        "lon": 111.09211484462614,
        "alt_km": 504.2691722232312,
        "timestamp": "2025-12-13T07:35:40.339293+00:00",
        "meta_object_name": "YAOGAN-47",
        "meta_object_id": "2025-289A",
        "meta_epoch": "2025-12-11T14:58:29.248032",
        "meta_mean_motion": 15.23120362,
        "meta_eccentricity": 8.584e-05,
        "meta_inclination": 97.5268,
        "meta_ra_of_asc_node": 50.7421,
        "meta_arg_of_pericenter": 73.685,
        "meta_mean_anomaly": 286.448,
        "meta_ephemeris_type": 0,
        "meta_classification_type": "U",
        "meta_norad_cat_id": 66988,
        "meta_element_set_no": 999,
        "meta_rev_at_epoch": 37,
        "meta_bstar": 0.00024920475,
        "meta_mean_motion_dot": 5.809e-05,
        "meta_mean_motion_ddot": 0,
        "tle_line1": "1 66988U 25289A   25345.62394963  .00005809  00000+0  24920-3 0  9995",
        "tle_line2": "2 66988  97.5268  50.7421 0000858  73.6850 286.4480 15.23120362   372"
      },
      "geometry": {
        "type": "Point",
        "coordinates": [
          111.09211484462614,
          -81.1994237513444
        ]
      }
    },
    {
      "type": "Feature",
      "properties": {
        "norad_id": 66989,
        "name": "CZ-4B R/B",
        "group": "last-30-days",
        "lat": 3.9817476364988496,
        "lon": -126.77141915085764,
        "alt_km": 469.2746288685248,
        "timestamp": "2025-12-13T07:35:40.339302+00:00",
        "meta_object_name": "CZ-4B R/B",
        "meta_object_id": "2025-289B",
        "meta_epoch": "2025-12-12T21:39:12.187296",
        "meta_mean_motion": 15.67199194,
        "meta_eccentricity": 0.01493632,
        "meta_inclination": 97.5266,
        "meta_ra_of_asc_node": 52.2573,
        "meta_arg_of_pericenter": 2.333,
        "meta_mean_anomaly": 357.8593,
        "meta_ephemeris_type": 0,
        "meta_classification_type": "U",
        "meta_norad_cat_id": 66989,
        "meta_element_set_no": 999,
        "meta_rev_at_epoch": 59,
        "meta_bstar": 0.00085236852,
        "meta_mean_motion_dot": 0.00170532,
        "meta_mean_motion_ddot": 1.0424924e-05,
        "tle_line1": "1 66989U 25289B   25346.90222439  .00170532  10425-4  85237-3 0  9997",
        "tle_line2": "2 66989  97.5266  52.2573 0149363   2.3330 357.8593 15.67199194   592"
      },
      "geometry": {
        "type": "Point",
        "coordinates": [
          -126.77141915085764,
          3.9817476364988496
        ]
      }
    },
    {
      "type": "Feature",
      "properties": {
        "norad_id": 66990,
        "name": "TJS-22",
        "group": "last-30-days",
        "lat": 4.892326148797435,
        "lon": 106.90498442530418,
        "alt_km": 2208.455598152731,
        "timestamp": "2025-12-13T07:35:40.339315+00:00",
        "meta_object_name": "TJS-22",
        "meta_object_id": "2025-290A",
        "meta_epoch": "2025-12-10T07:11:32.845344",
        "meta_mean_motion": 2.15443148,
        "meta_eccentricity": 0.6664534,
        "meta_inclination": 20.1261,
        "meta_ra_of_asc_node": 301.1464,
        "meta_arg_of_pericenter": 180.6877,
        "meta_mean_anomaly": 177.6237,
        "meta_ephemeris_type": 0,
        "meta_classification_type": "U",
        "meta_norad_cat_id": 66990,
        "meta_element_set_no": 999,
        "meta_rev_at_epoch": 3,
        "meta_bstar": 0.079788243,
        "meta_mean_motion_dot": -3.8e-07,
        "meta_mean_motion_ddot": 0,
        "tle_line1": "1 66990U 25290A   25344.29968571 -.00000038  00000+0  79788-1 0  9994",
        "tle_line2": "2 66990  20.1261 301.1464 6664534 180.6877 177.6237  2.15443148    32"
      },
      "geometry": {
        "type": "Point",
        "coordinates": [
          106.90498442530418,
          4.892326148797435
        ]
      }
    },
    {
      "type": "Feature",
      "properties": {
        "norad_id": 66991,
        "name": "CZ-3B R/B",
        "group": "last-30-days",
        "lat": 10.304535582907194,
        "lon": -39.01557463054148,
        "alt_km": 28529.661094844367,
        "timestamp": "2025-12-13T07:35:40.339325+00:00",
        "meta_object_name": "CZ-3B R/B",
        "meta_object_id": "2025-290B",
        "meta_epoch": "2025-12-10T06:44:55.577184",
        "meta_mean_motion": 2.37676924,
        "meta_eccentricity": 0.72420555,
        "meta_inclination": 28.4645,
        "meta_ra_of_asc_node": 302.5976,
        "meta_arg_of_pericenter": 179.3847,
        "meta_mean_anomaly": 182.8677,
        "meta_ephemeris_type": 0,
        "meta_classification_type": "U",
        "meta_norad_cat_id": 66991,
        "meta_element_set_no": 999,
        "meta_rev_at_epoch": 3,
        "meta_bstar": 0.00043781284,
        "meta_mean_motion_dot": 0.00018897,
        "meta_mean_motion_ddot": 4.56211e-07,
        "tle_line1": "1 66991U 25290B   25344.28119881  .00018897  45621-6  43781-3 0  9998",
        "tle_line2": "2 66991  28.4645 302.5976 7242055 179.3847 182.8677  2.37676924    36"
      },
      "geometry": {
        "type": "Point",
        "coordinates": [
          -39.01557463054148,
          10.304535582907194
        ]
      }
    }
  ]
}